[{"OBJECT_NAME":"STARLINK-30469","OBJECT_ID":"2023-146F","EPOCH":"2025-09-20T02:19:34.592160","MEAN_MOTION":15.02543487,"ECCENTRICITY":8.547e-5,"INCLINATION":43.0023,"RA_OF_ASC_NODE":160.3869,"ARG_OF_PERICENTER":269.9434,"MEAN_ANOMALY":90.131,"EPHEMERIS_TYPE":0,"CLASSIFICATION_TYPE":"U","NORAD_CAT_ID":57896,"ELEMENT_SET_NO":999,"REV_AT_EPOCH":11140,"BSTAR":5.4570447e-5,"MEAN_MOTION_DOT":5.34e-6,"MEAN_MOTION_DDOT":0},{"OBJECT_NAME":"STARLINK-30474","OBJECT_ID":"2023-146G","EPOCH":"2025-09-20T02:11:35.534400","MEAN_MOTION":15.02534041,"ECCENTRICITY":0.00014198,"INCLINATION":43.0038,"RA_OF_ASC_NODE":160.3482,"ARG_OF_PERICENTER":266.3168,"MEAN_ANOMALY":93.7512,"EPHEMERIS_TYPE":0,"CLASSIFICATION_TYPE":"U","NORAD_CAT_ID":57897,"ELEMENT_SET_NO":999,"REV_AT_EPOCH":11140,"BSTAR":1.0249748e-5,"MEAN_MOTION_DOT":-6.5e-7,"MEAN_MOTION_DDOT":0},{"OBJECT_NAME":"STARLINK-30479","OBJECT_ID":"2023-146H","EPOCH":"2025-09-20T02:09:59.771232","MEAN_MOTION":15.02535481,"ECCENTRICITY":0.00011865,"INCLINATION":43.0009,"RA_OF_ASC_NODE":160.3398,"ARG_OF_PERICENTER":267.1041,"MEAN_ANOMALY":92.9666,"EPHEMERIS_TYPE":0,"CLASSIFICATION_TYPE":"U","NORAD_CAT_ID":57898,"ELEMENT_SET_NO":999,"REV_AT_EPOCH":11140,"BSTAR":5.4254661e-5,"MEAN_MOTION_DOT":5.29e-6,"MEAN_MOTION_DDOT":0},{"OBJECT_NAME":"STARLINK-30481","OBJECT_ID":"2023-146J","EPOCH":"2025-09-20T02:05:12.105024","MEAN_MOTION":15.02534585,"ECCENTRICITY":0.00012001,"INCLINATION":43.0002,"RA_OF_ASC_NODE":160.3153,"ARG_OF_PERICENTER":271.8691,"MEAN_ANOMALY":88.2014,"EPHEMERIS_TYPE":0,"CLASSIFICATION_TYPE":"U","NORAD_CAT_ID":57899,"ELEMENT_SET_NO":999,"REV_AT_EPOCH":11140,"BSTAR":-1.645766e-6,"MEAN_MOTION_DOT":-2.26e-6,"MEAN_MOTION_DDOT":0},{"OBJECT_NAME":"STARLINK-30457","OBJECT_ID":"2023-146K","EPOCH":"2025-09-20T03:18:32.800032","MEAN_MOTION":15.02538084,"ECCENTRICITY":0.00012745,"INCLINATION":43.0032,"RA_OF_ASC_NODE":159.8385,"ARG_OF_PERICENTER":267.5531,"MEAN_ANOMALY":92.5166,"EPHEMERIS_TYPE":0,"CLASSIFICATION_TYPE":"U","NORAD_CAT_ID":57900,"ELEMENT_SET_NO":999,"REV_AT_EPOCH":11035,"BSTAR":4.9672711e-5,"MEAN_MOTION_DOT":4.67e-6,"MEAN_MOTION_DDOT":0},{"OBJECT_NAME":"STARLINK-30472","OBJECT_ID":"2023-146L","EPOCH":"2025-09-20T02:52:58.665216","MEAN_MOTION":15.02535108,"ECCENTRICITY":9.788e-5,"INCLINATION":43.0023,"RA_OF_ASC_NODE":159.6965,"ARG_OF_PERICENTER":261.8086,"MEAN_ANOMALY":98.2646,"EPHEMERIS_TYPE":0,"CLASSIFICATION_TYPE":"U","NORAD_CAT_ID":57901,"ELEMENT_SET_NO":999,"REV_AT_EPOCH":11035,"BSTAR":-1.7797316e-5,"MEAN_MOTION_DOT":-4.44e-6,"MEAN_MOTION_DDOT":0},{"OBJECT_NAME":"STARLINK-30462","OBJECT_ID":"2023-146M","EPOCH":"2025-09-20T01:55:37.183872","MEAN_MOTION":15.02519511,"ECCENTRICITY":8.64e-5,"INCLINATION":43.0025,"RA_OF_ASC_NODE":160.2637,"ARG_OF_PERICENTER":259.6656,"MEAN_ANOMALY":100.4089,"EPHEMERIS_TYPE":0,"CLASSIFICATION_TYPE":"U","NORAD_CAT_ID":57902,"ELEMENT_SET_NO":999,"REV_AT_EPOCH":11136,"BSTAR":-0.00015678146,"MEAN_MOTION_DOT":-2.32e-5,"MEAN_MOTION_DDOT":0},{"OBJECT_NAME":"STARLINK-30449","OBJECT_ID":"2023-146N","EPOCH":"2025-09-20T02:48:10.689696","MEAN_MOTION":15.02538901,"ECCENTRICITY":8.798e-5,"INCLINATION":43.0027,"RA_OF_ASC_NODE":159.673,"ARG_OF_PERICENTER":268.876,"MEAN_ANOMALY":91.1981,"EPHEMERIS_TYPE":0,"CLASSIFICATION_TYPE":"U","NORAD_CAT_ID":57903,"ELEMENT_SET_NO":999,"REV_AT_EPOCH":11035,"BSTAR":1.8710862e-5,"MEAN_MOTION_DOT":4.9e-7,"MEAN_MOTION_DDOT":0},{"OBJECT_NAME":"STARLINK-30466","OBJECT_ID":"2023-146P","EPOCH":"2025-09-19T17:52:09.759360","MEAN_MOTION":15.02544722,"ECCENTRICITY":0.00014495,"INCLINATION":43.0046,"RA_OF_ASC_NODE":162.0454,"ARG_OF_PERICENTER":278.9092,"MEAN_ANOMALY":81.1586,"EPHEMERIS_TYPE":0,"CLASSIFICATION_TYPE":"U","NORAD_CAT_ID":57904,"ELEMENT_SET_NO":999,"REV_AT_EPOCH":11029,"BSTAR":0.00012479731,"MEAN_MOTION_DOT":1.483e-5,"MEAN_MOTION_DDOT":0},{"OBJECT_NAME":"STARLINK-30451","OBJECT_ID":"2023-146Q","EPOCH":"2025-09-20T23:27:51.543360","MEAN_MOTION":15.02546367,"ECCENTRICITY":0.00010773,"INCLINATION":43.0027,"RA_OF_ASC_NODE":154.9508,"ARG_OF_PERICENTER":272.9351,"MEAN_ANOMALY":87.1368,"EPHEMERIS_TYPE":0,"CLASSIFICATION_TYPE":"U","NORAD_CAT_ID":57905,"ELEMENT_SET_NO":999,"REV_AT_EPOCH":11048,"BSTAR":-0.00015970741,"MEAN_MOTION_DOT":-2.361e-5,"MEAN_MOTION_DDOT":0},{"OBJECT_NAME":"STARLINK-30428","OBJECT_ID":"2023-146R","EPOCH":"2025-09-19T17:47:21.047712","MEAN_MOTION":15.02546789,"ECCENTRICITY":0.00010907,"INCLINATION":43.0016,"RA_OF_ASC_NODE":162.0162,"ARG_OF_PERICENTER":263.3289,"MEAN_ANOMALY":96.7429,"EPHEMERIS_TYPE":0,"CLASSIFICATION_TYPE":"U","NORAD_CAT_ID":57906,"ELEMENT_SET_NO":999,"REV_AT_EPOCH":11029,"BSTAR":0.00010251623,"MEAN_MOTION_DOT":1.182e-5,"MEAN_MOTION_DDOT":0},{"OBJECT_NAME":"STARLINK-30482","OBJECT_ID":"2023-146S","EPOCH":"2025-09-19T22:29:46.012704","MEAN_MOTION":15.02536765,"ECCENTRICITY":0.0001314,"INCLINATION":43.0029,"RA_OF_ASC_NODE":160.9116,"ARG_OF_PERICENTER":274.7348,"MEAN_ANOMALY":85.3344,"EPHEMERIS_TYPE":0,"CLASSIFICATION_TYPE":"U","NORAD_CAT_ID":57907,"ELEMENT_SET_NO":999,"REV_AT_EPOCH":11033,"BSTAR":1.3057624e-5,"MEAN_MOTION_DOT":-2.7e-7,"MEAN_MOTION_DDOT":0},{"OBJECT_NAME":"STARLINK-30464","OBJECT_ID":"2023-146T","EPOCH":"2025-09-20T01:31:38.148672","MEAN_MOTION":15.02527428,"ECCENTRICITY":0.00013358,"INCLINATION":43.0038,"RA_OF_ASC_NODE":160.1376,"ARG_OF_PERICENTER":277.4286,"MEAN_ANOMALY":82.6404,"EPHEMERIS_TYPE":0,"CLASSIFICATION_TYPE":"U","NORAD_CAT_ID":57908,"ELEMENT_SET_NO":999,"REV_AT_EPOCH":11034,"BSTAR":0.00017881698,"MEAN_MOTION_DOT":2.212e-5,"MEAN_MOTION_DDOT":0},{"OBJECT_NAME":"STARLINK-30463","OBJECT_ID":"2023-146U","EPOCH":"2025-09-20T01:36:25.689600","MEAN_MOTION":15.02534411,"ECCENTRICITY":8.462e-5,"INCLINATION":43.0026,"RA_OF_ASC_NODE":160.1625,"ARG_OF_PERICENTER":274.8726,"MEAN_ANOMALY":85.202,"EPHEMERIS_TYPE":0,"CLASSIFICATION_TYPE":"U","NORAD_CAT_ID":57909,"ELEMENT_SET_NO":999,"REV_AT_EPOCH":11034,"BSTAR":4.8697927e-5,"MEAN_MOTION_DOT":4.54e-6,"MEAN_MOTION_DDOT":0},{"OBJECT_NAME":"STARLINK-30453","OBJECT_ID":"2023-146V","EPOCH":"2025-09-19T23:51:06.791904","MEAN_MOTION":15.02536784,"ECCENTRICITY":0.00012907,"INCLINATION":43.0027,"RA_OF_ASC_NODE":160.4725,"ARG_OF_PERICENTER":277.4795,"MEAN_ANOMALY":82.5901,"EPHEMERIS_TYPE":0,"CLASSIFICATION_TYPE":"U","NORAD_CAT_ID":57910,"ELEMENT_SET_NO":999,"REV_AT_EPOCH":11033,"BSTAR":1.6951883e-5,"MEAN_MOTION_DOT":2.5e-7,"MEAN_MOTION_DDOT":0},{"OBJECT_NAME":"STARLINK-30478","OBJECT_ID":"2023-146W","EPOCH":"2025-09-20T23:26:16.576800","MEAN_MOTION":15.02506906,"ECCENTRICITY":0.0002057,"INCLINATION":43.0014,"RA_OF_ASC_NODE":154.9405,"ARG_OF_PERICENTER":77.5815,"MEAN_ANOMALY":282.5257,"EPHEMERIS_TYPE":0,"CLASSIFICATION_TYPE":"U","NORAD_CAT_ID":57911,"ELEMENT_SET_NO":999,"REV_AT_EPOCH":11154,"BSTAR":0.00027800669,"MEAN_MOTION_DOT":3.551e-5,"MEAN_MOTION_DDOT":0},{"OBJECT_NAME":"STARLINK-30477","OBJECT_ID":"2023-146X","EPOCH":"2025-09-20T02:57:46.143072","MEAN_MOTION":15.02535004,"ECCENTRICITY":0.00013265,"INCLINATION":43.0031,"RA_OF_ASC_NODE":159.727,"ARG_OF_PERICENTER":269.9133,"MEAN_ANOMALY":90.1557,"EPHEMERIS_TYPE":0,"CLASSIFICATION_TYPE":"U","NORAD_CAT_ID":57912,"ELEMENT_SET_NO":999,"REV_AT_EPOCH":11141,"BSTAR":4.269589e-6,"MEAN_MOTION_DOT":-1.46e-6,"MEAN_MOTION_DDOT":0},{"OBJECT_NAME":"STARLINK-30450","OBJECT_ID":"2023-147A","EPOCH":"2025-09-20T02:38:22.690176","MEAN_MOTION":15.02539757,"ECCENTRICITY":0.00016216,"INCLINATION":43.0023,"RA_OF_ASC_NODE":173.3432,"ARG_OF_PERICENTER":264.5489,"MEAN_ANOMALY":95.5168,"EPHEMERIS_TYPE":0,"CLASSIFICATION_TYPE":"U","NORAD_CAT_ID":57913,"ELEMENT_SET_NO":999,"REV_AT_EPOCH":11092,"BSTAR":0.00010536514,"MEAN_MOTION_DOT":1.22e-5,"MEAN_MOTION_DDOT":0},{"OBJECT_NAME":"STARLINK-30483","OBJECT_ID":"2023-147B","EPOCH":"2025-09-20T17:08:48.635520","MEAN_MOTION":15.27596592,"ECCENTRICITY":0.00010364,"INCLINATION":42.9997,"RA_OF_ASC_NODE":59.5534,"ARG_OF_PERICENTER":262.6001,"MEAN_ANOMALY":97.4733,"EPHEMERIS_TYPE":0,"CLASSIFICATION_TYPE":"U","NORAD_CAT_ID":57914,"ELEMENT_SET_NO":999,"REV_AT_EPOCH":11231,"BSTAR":6.8975737e-5,"MEAN_MOTION_DOT":1.637e-5,"MEAN_MOTION_DDOT":0},{"OBJECT_NAME":"STARLINK-30454","OBJECT_ID":"2023-147C","EPOCH":"2025-09-20T02:28:43.937184","MEAN_MOTION":15.0255843,"ECCENTRICITY":7.262e-5,"INCLINATION":43.0035,"RA_OF_ASC_NODE":173.2928,"ARG_OF_PERICENTER":259.888,"MEAN_ANOMALY":100.188,"EPHEMERIS_TYPE":0,"CLASSIFICATION_TYPE":"U","NORAD_CAT_ID":57915,"ELEMENT_SET_NO":999,"REV_AT_EPOCH":11092,"BSTAR":0.00021476627,"MEAN_MOTION_DOT":2.7e-5,"MEAN_MOTION_DDOT":0},{"OBJECT_NAME":"STARLINK-30501","OBJECT_ID":"2023-147E","EPOCH":"2025-09-20T02:23:58.909632","MEAN_MOTION":15.02543857,"ECCENTRICITY":0.00012874,"INCLINATION":43.0021,"RA_OF_ASC_NODE":173.2677,"ARG_OF_PERICENTER":278.3715,"MEAN_ANOMALY":81.6981,"EPHEMERIS_TYPE":0,"CLASSIFICATION_TYPE":"U","NORAD_CAT_ID":57917,"ELEMENT_SET_NO":999,"REV_AT_EPOCH":11095,"BSTAR":-8.903388e-5,"MEAN_MOTION_DOT":-1.406e-5,"MEAN_MOTION_DDOT":0},{"OBJECT_NAME":"STARLINK-30499","OBJECT_ID":"2023-147F","EPOCH":"2025-09-19T20:19:04.229472","MEAN_MOTION":15.27583528,"ECCENTRICITY":0.00022227,"INCLINATION":43.0077,"RA_OF_ASC_NODE":65.0453,"ARG_OF_PERICENTER":266.8018,"MEAN_ANOMALY":93.258,"EPHEMERIS_TYPE":0,"CLASSIFICATION_TYPE":"U","NORAD_CAT_ID":57918,"ELEMENT_SET_NO":999,"REV_AT_EPOCH":11220,"BSTAR":3.056578e-5,"MEAN_MOTION_DOT":5.79e-6,"MEAN_MOTION_DDOT":0},{"OBJECT_NAME":"STARLINK-30496","OBJECT_ID":"2023-147G","EPOCH":"2025-09-20T02:14:23.822592","MEAN_MOTION":15.0252866,"ECCENTRICITY":8.429e-5,"INCLINATION":43.0026,"RA_OF_ASC_NODE":173.2189,"ARG_OF_PERICENTER":263.2041,"MEAN_ANOMALY":96.8706,"EPHEMERIS_TYPE":0,"CLASSIFICATION_TYPE":"U","NORAD_CAT_ID":57919,"ELEMENT_SET_NO":999,"REV_AT_EPOCH":11095,"BSTAR":-3.9799403e-5,"MEAN_MOTION_DOT":-7.41e-6,"MEAN_MOTION_DDOT":0}]
